GLOBALSTAR M075         
1 37192U 10054E   24137.23844389 -.00000061  00000+0  24129-3 0  9998
2 37192  51.9953 310.1584 0000916 105.7843  65.2854 12.62274182626247
GLOBALSTAR M073         
1 37193U 10054F   24137.52089399 -.00000082  00000+0  11963-3 0  9998
2 37193  52.0053 222.8158 0000504 151.2320 223.0994 12.62265243627794
GLOBALSTAR M083         
1 37739U 11033A   24137.48467785 -.00000098  00000+0  30676-4 0  9996
2 37739  51.9835 172.1982 0000359  92.5924  58.3261 12.62270142597115
GLOBALSTAR M088         
1 37740U 11033B   24137.54186374 -.00000084  00000+0  11038-3 0  9992
2 37740  51.9740  77.8456 0000692  66.0947 105.2520 12.62268157592590
GLOBALSTAR M091         
1 37741U 11033C   24136.90107865 -.00000080  00000+0  13418-3 0  9990
2 37741  52.0020  42.6441 0001019  73.5870   3.6596 12.62262590593017
GLOBALSTAR M085         
1 37742U 11033D   24137.58736122 -.00000071  00000+0  18137-3 0  9993
2 37742  51.9887 351.9454 0001107  89.6377 288.3438 12.62271023594104
GLOBALSTAR M081         
1 37743U 11033E   24136.91978080 -.00000071  00000+0  18422-3 0  9998
2 37743  51.9978 356.5207 0001075  98.8912   3.5653 12.62264685593677
GLOBALSTAR M089         
1 37744U 11033F   24137.49903378 -.00000066  00000+0  20931-3 0  9993
2 37744  51.9936 309.0615 0000669 130.9578 263.7219 12.62263719594847
